TERRA
1 25994U 99068A   16080.77992111 -.00000144  00000-0 -21930-4 0  9993
2 25994  98.2184 156.2958 0001282  83.1370 276.9979 14.57104064864643